XRISM                   
1 57800U 23137A   24094.20164346  .00004249  00000+0  32559-3 0  9996
2 57800  31.0025 129.5688 0010274 186.0893 173.9618 15.00158627 31410
